{"fetched_at":"2026-07-18T06:28:30.344Z","source":"https://celestrak.org/NORAD/elements/gp.php?NAME=SPOT&FORMAT=JSON","constellation":"spot","records":[{"OBJECT_NAME":"SPOT 6","OBJECT_ID":"2012-047A","EPOCH":"2026-07-17T22:21:35.278848","CLASSIFICATION_TYPE":"U","MEAN_MOTION":14.58539113,"ECCENTRICITY":0.00011106,"INCLINATION":98.2105,"RA_OF_ASC_NODE":265.8783,"ARG_OF_PERICENTER":90.6808,"MEAN_ANOMALY":269.4519,"EPHEMERIS_TYPE":0,"NORAD_CAT_ID":38755,"ELEMENT_SET_NO":999,"REV_AT_EPOCH":73753,"BSTAR":0.000005298817,"MEAN_MOTION_DOT":-2.1e-7,"MEAN_MOTION_DDOT":0},{"OBJECT_NAME":"SPOT 7","OBJECT_ID":"2014-034A","EPOCH":"2026-07-17T22:23:20.914080","CLASSIFICATION_TYPE":"U","MEAN_MOTION":14.60981693,"ECCENTRICITY":0.00016128,"INCLINATION":98.0612,"RA_OF_ASC_NODE":260.6301,"ARG_OF_PERICENTER":94.4289,"MEAN_ANOMALY":265.7096,"EPHEMERIS_TYPE":0,"NORAD_CAT_ID":40053,"ELEMENT_SET_NO":999,"REV_AT_EPOCH":64162,"BSTAR":0.000018936257,"MEAN_MOTION_DOT":4.8e-7,"MEAN_MOTION_DDOT":0}]}
