SPOT 6                  
1 38755U 12047A   26198.93165832 -.00000021  00000+0  52988-5 0  9995
2 38755  98.2105 265.8783 0001110  90.6808 269.4519 14.58539113737539
SPOT 7                  
1 40053U 14034A   26198.93288095  .00000048  00000+0  18936-4 0  9996
2 40053  98.0612 260.6301 0001612  94.4289 265.7096 14.60981693641625
